ONEWEB-0522             
1 54140U 22138AD  26201.80512889  .00000002  00000+0 -26540-4 0  9995
2 54140  87.9195 298.2662 0001986 104.3835 255.7518 13.19724100181245
ONEWEB-0523             
1 54141U 22138AE  26202.19562625  .00000059  00000+0  11281-3 0  9998
2 54141  87.9179 267.6641 0002097  75.6392 284.4974 13.20770161183794
ONEWEB-0524             
1 54142U 22138AF  26202.18552939  .00000028  00000+0  37947-4 0  9999
2 54142  87.9180 267.6630 0002793  86.2207 273.9246 13.20770479183798
ONEWEB-0525             
1 54143U 22138AG  26201.97572070  .00000018  00000+0  13521-4 0  9995
2 54143  87.9192 298.2392 0002285 107.8771 252.2611 13.19723903181285
ONEWEB-0526             
1 54144U 22138AH  26202.00889201  .00000017  00000+0  96956-5 0  9991
2 54144  87.9192 298.2333 0002160 101.7952 258.3423 13.19724625181265
ONEWEB-0529             
1 54145U 22138AJ  26202.01205279 -.00000014  00000+0 -67889-4 0  9991
2 54145  87.9185 298.2393 0002152 105.7317 254.4054 13.19725599181284
ONEWEB-0531             
1 54146U 22138AK  26201.71751363 -.00000058  00000+0 -17395-3 0  9992
2 54146  87.9184 267.7537 0002338  76.8720 283.2674 13.20769468183732
ONEWEB-0535             
1 54147U 22138AL  26201.96939215  .00000069  00000+0  14103-3 0  9998
2 54147  87.9195 298.2347 0001894  91.4618 268.6732 13.19724164181291
ONEWEB-0536             
1 54148U 22138AM  26202.15858757  .00000036  00000+0  56883-4 0  9998
2 54148  87.9165 267.6840 0002533  76.5379 283.6036 13.20769703183786
ONEWEB-0527             
1 54642U 22166A   26202.16432127  .00000020  00000+0  16939-4 0  9999
2 54642  87.9228 237.2340 0002058  96.9448 263.1920 13.21826752176021
ONEWEB-0528             
1 54643U 22166B   26202.16516940 -.00000041  00000+0 -13005-3 0  9991
2 54643  87.9229 237.2367 0002206  99.6924 260.4459 13.21825916176035
ONEWEB-0539             
1 54644U 22166C   26202.12732141 -.00000079  00000+0 -22392-3 0  9991
2 54644  87.9234 237.2180 0001813  96.5162 263.6178 13.21824771176028
ONEWEB-0540             
1 54645U 22166D   26202.13419023  .00000033  00000+0  49221-4 0  9993
2 54645  87.9229 237.2450 0001978  94.9649 265.1711 13.21824802176011
ONEWEB-0542             
1 54646U 22166E   26202.13742062  .00000025  00000+0  30123-4 0  9998
2 54646  87.9238 237.2154 0001771  96.3374 263.7962 13.21826257176024
ONEWEB-0545             
1 54647U 22166F   26202.10209500  .00000022  00000+0  22729-4 0  9991
2 54647  87.9231 237.2316 0001456  93.2734 266.8567 13.21826512175987
ONEWEB-0580             
1 54648U 22166G   26202.15254878 -.00000116  00000+0 -31333-3 0  9991
2 54648  87.9228 237.2208 0001675  89.9906 270.1420 13.21823874176031
ONEWEB-0582             
1 54649U 22166H   26202.11889933  .00000124  00000+0  26828-3 0  9994
2 54649  87.9233 237.2207 0001563  94.3216 265.8097 13.21824480176009
ONEWEB-0583             
1 54650U 22166J   26202.13069287  .00000099  00000+0  20866-3 0  9997
2 54650  87.9229 237.2415 0001928  94.7420 265.3934 13.21826147176011
ONEWEB-0584             
1 54651U 22166K   26202.15087102 -.00000067  00000+0 -19346-3 0  9994
2 54651  87.9225 237.2222 0002039  93.6846 266.4522 13.21825146176000
ONEWEB-0585             
1 54652U 22166L   26202.09871888 -.00000017  00000+0 -72501-4 0  9998
2 54652  87.9234 237.2209 0002268  97.6355 262.5037 13.21824062176003
ONEWEB-0586             
1 54653U 22166M   26202.11218125 -.00000026  00000+0 -95552-4 0  9992
2 54653  87.9229 237.2433 0001898  97.1238 263.0112 13.21823973176000
ONEWEB-0587             
1 54654U 22166N   26202.12228510  .00001032  00000+0  24663-2 0  9992
2 54654  87.9222 237.2176 0002284  98.2783 261.8610 13.21821498176161
ONEWEB-0589             
1 54655U 22166P   26202.10882514  .00000051  00000+0  92739-4 0  9992
2 54655  87.9228 237.2288 0001265  84.4632 275.6646 13.21826446176025
ONEWEB-0590             
1 54656U 22166Q   26202.13390162  .00000091  00000+0  18991-3 0  9990
2 54656  87.9238 237.2172 0002182  83.5746 276.5637 13.21826587176019
ONEWEB-0591             
1 54657U 22166R   26202.14581277  .00000050  00000+0  89027-4 0  9995
2 54657  87.9226 237.2264 0002024  92.2184 267.9181 13.21823925176041
ONEWEB-0592             
1 54658U 22166S   26202.07349303  .00000022  00000+0  20556-4 0  9991
2 54658  87.9236 237.2221 0002016  95.6824 264.4540 13.21824828175914
ONEWEB-0593             
1 54659U 22166T   26202.09535900 -.00000035  00000+0 -11712-3 0  9993
2 54659  87.9236 237.2276 0001923  97.7338 262.4014 13.21826469176024
ONEWEB-0594             
1 54660U 22166U   26202.11554785  .00000029  00000+0  38306-4 0  9990
2 54660  87.9227 237.2390 0002238  97.8795 262.2593 13.21824809176049
ONEWEB-0595             
1 54661U 22166V   26202.09200301 -.00000042  00000+0 -13291-3 0  9992
2 54661  87.9239 237.2271 0002286  94.0347 266.1048 13.21826025176013
ONEWEB-0596             
1 54662U 22166W   26202.14245886 -.00000030  00000+0 -10411-3 0  9994
2 54662  87.9230 237.2261 0002121  95.0282 265.1094 13.21824215176021
