OBJECT_NAME,OBJECT_ID,EPOCH,MEAN_MOTION,ECCENTRICITY,INCLINATION,RA_OF_ASC_NODE,ARG_OF_PERICENTER,MEAN_ANOMALY,EPHEMERIS_TYPE,CLASSIFICATION_TYPE,NORAD_CAT_ID,ELEMENT_SET_NO,REV_AT_EPOCH,BSTAR,MEAN_MOTION_DOT,MEAN_MOTION_DDOT
ONEWEB-0522,2022-138AD,2026-07-20T19:19:23.136096,13.19724100,.00019863,87.9195,298.2662,104.3835,255.7518,0,U,54140,999,18124,-.26539762E-4,.2E-7,0
ONEWEB-0523,2022-138AE,2026-07-21T04:41:42.108000,13.20770161,.0002097,87.9179,267.6641,75.6392,284.4974,0,U,54141,999,18379,.11281462E-3,.59E-6,0
ONEWEB-0524,2022-138AF,2026-07-21T04:27:09.739296,13.20770479,.0002793,87.9180,267.6630,86.2207,273.9246,0,U,54142,999,18379,.37946683E-4,.28E-6,0
ONEWEB-0525,2022-138AG,2026-07-20T23:25:02.268480,13.19723903,.00022856,87.9192,298.2392,107.8771,252.2611,0,U,54143,999,18128,.1352148E-4,.18E-6,0
ONEWEB-0526,2022-138AH,2026-07-21T00:12:48.269664,13.19724625,.00021607,87.9192,298.2333,101.7952,258.3423,0,U,54144,999,18126,.9695596E-5,.17E-6,0
ONEWEB-0529,2022-138AJ,2026-07-21T00:17:21.361056,13.19725599,.00021526,87.9185,298.2393,105.7317,254.4054,0,U,54145,999,18128,-.67889037E-4,-.14E-6,0
ONEWEB-0531,2022-138AK,2026-07-20T17:13:13.177632,13.20769468,.00023382,87.9184,267.7537,76.8720,283.2674,0,U,54146,999,18373,-.17395097E-3,-.58E-6,0
ONEWEB-0535,2022-138AL,2026-07-20T23:15:55.481760,13.19724164,.00018947,87.9195,298.2347,91.4618,268.6732,0,U,54147,999,18129,.14102905E-3,.69E-6,0
ONEWEB-0536,2022-138AM,2026-07-21T03:48:21.966048,13.20769703,.00025337,87.9165,267.6840,76.5379,283.6036,0,U,54148,999,18378,.56883437E-4,.36E-6,0
ONEWEB-0527,2022-166A,2026-07-21T03:56:37.357728,13.21826752,.00020585,87.9228,237.2340,96.9448,263.1920,0,U,54642,999,17602,.16939433E-4,.2E-6,0
ONEWEB-0528,2022-166B,2026-07-21T03:57:50.636160,13.21825916,.00022068,87.9229,237.2367,99.6924,260.4459,0,U,54643,999,17603,-.13005411E-3,-.41E-6,0
ONEWEB-0539,2022-166C,2026-07-21T03:03:20.569824,13.21824771,.00018135,87.9234,237.2180,96.5162,263.6178,0,U,54644,999,17602,-.22391634E-3,-.79E-6,0
ONEWEB-0540,2022-166D,2026-07-21T03:13:14.035872,13.21824802,.00019782,87.9229,237.2450,94.9649,265.1711,0,U,54645,999,17601,.49220919E-4,.33E-6,0
ONEWEB-0542,2022-166E,2026-07-21T03:17:53.141568,13.21826257,.00017719,87.9238,237.2154,96.3374,263.7962,0,U,54646,999,17602,.30123165E-4,.25E-6,0
ONEWEB-0545,2022-166F,2026-07-21T02:27:01.008000,13.21826512,.00014564,87.9231,237.2316,93.2734,266.8567,0,U,54647,999,17598,.22728605E-4,.22E-6,0
ONEWEB-0580,2022-166G,2026-07-21T03:39:40.214592,13.21823874,.00016753,87.9228,237.2208,89.9906,270.1420,0,U,54648,999,17603,-.31332549E-3,-.116E-5,0
ONEWEB-0582,2022-166H,2026-07-21T02:51:12.902112,13.21824480,.00015634,87.9233,237.2207,94.3216,265.8097,0,U,54649,999,17600,.26828251E-3,.124E-5,0
ONEWEB-0583,2022-166J,2026-07-21T03:08:11.863968,13.21826147,.00019284,87.9229,237.2415,94.7420,265.3934,0,U,54650,999,17601,.20865572E-3,.99E-6,0
ONEWEB-0584,2022-166K,2026-07-21T03:37:15.256128,13.21825146,.00020396,87.9225,237.2222,93.6846,266.4522,0,U,54651,999,17600,-.19345946E-3,-.67E-6,0
ONEWEB-0585,2022-166L,2026-07-21T02:22:09.311232,13.21824062,.00022688,87.9234,237.2209,97.6355,262.5037,0,U,54652,999,17600,-.72500692E-4,-.17E-6,0
ONEWEB-0586,2022-166M,2026-07-21T02:41:32.460000,13.21823973,.00018981,87.9229,237.2433,97.1238,263.0112,0,U,54653,999,17600,-.95552159E-4,-.26E-6,0
ONEWEB-0587,2022-166N,2026-07-21T02:56:05.432640,13.21821498,.00022848,87.9222,237.2176,98.2783,261.8610,0,U,54654,999,17616,.24662548E-2,.1032E-4,0
ONEWEB-0589,2022-166P,2026-07-21T02:36:42.492096,13.21826446,.00012652,87.9228,237.2288,84.4632,275.6646,0,U,54655,999,17602,.92739449E-4,.51E-6,0
ONEWEB-0590,2022-166Q,2026-07-21T03:12:49.099968,13.21826587,.00021826,87.9238,237.2172,83.5746,276.5637,0,U,54656,999,17601,.18990825E-3,.91E-6,0
ONEWEB-0591,2022-166R,2026-07-21T03:29:58.223328,13.21823925,.00020247,87.9226,237.2264,92.2184,267.9181,0,U,54657,999,17604,.89026659E-4,.5E-6,0
ONEWEB-0592,2022-166S,2026-07-21T01:45:49.797792,13.21824828,.00020169,87.9236,237.2221,95.6824,264.4540,0,U,54658,999,17591,.20555844E-4,.22E-6,0
ONEWEB-0593,2022-166T,2026-07-21T02:17:19.017600,13.21826469,.00019232,87.9236,237.2276,97.7338,262.4014,0,U,54659,999,17602,-.11712161E-3,-.35E-6,0
ONEWEB-0594,2022-166U,2026-07-21T02:46:23.334240,13.21824809,.00022381,87.9227,237.2390,97.8795,262.2593,0,U,54660,999,17604,.38305793E-4,.29E-6,0
ONEWEB-0595,2022-166V,2026-07-21T02:12:29.060064,13.21826025,.00022861,87.9239,237.2271,94.0347,266.1048,0,U,54661,999,17601,-.1329109E-3,-.42E-6,0
ONEWEB-0596,2022-166W,2026-07-21T03:25:08.445504,13.21824215,.00021213,87.9230,237.2261,95.0282,265.1094,0,U,54662,999,17602,-.1041138E-3,-.3E-6,0
